{"type": "FeatureCollection", "features": [ {"type": "Feature", "properties": {"norad_id": 30435, "name": "FENGYUN 1C DEB", "group": "fengyun-1c-debris", "lat": 73.55298621684717, "lon": -55.71360292100331, "alt_km": 819.1154711813142, "timestamp": "2025-12-16T17:51:11.207699+00:00", "meta": {"OBJECT_NAME": "FENGYUN 1C DEB", "OBJECT_ID": "1999-025AEW", "EPOCH": "2025-12-15T22:36:39.422880", "MEAN_MOTION": 13.79631641, "ECCENTRICITY": 0.0207925, "INCLINATION": 99.0169, "RA_OF_ASC_NODE": 336.0612, "ARG_OF_PERICENTER": 103.3321, "MEAN_ANOMALY": 313.9491, "EPHEMERIS_TYPE": 0, "CLASSIFICATION_TYPE": "U", "NORAD_CAT_ID": 30435, "ELEMENT_SET_NO": 999, "REV_AT_EPOCH": 94204, "BSTAR": 0.0013027588, "MEAN_MOTION_DOT": 1.541e-05, "MEAN_MOTION_DDOT": 0}, "tle": {"line1": "1 30435U 99025AEW 25349.94212295  .00001541  00000+0  13028-2 0  9993", "line2": "2 30435  99.0169 336.0612 0207925 103.3321 313.9491 13.79631641942040"}}, "geometry": {"type": "Point", "coordinates": [-55.71360292100331, 73.55298621684717]}}, {"type": "Feature", "properties": {"norad_id": 30436, "name": "FENGYUN 1C DEB", "group": "fengyun-1c-debris", "lat": 20.317992402380398, "lon": -118.5781566202363, "alt_km": 830.3485178561641, "timestamp": "2025-12-16T17:51:11.207710+00:00", "meta": {"OBJECT_NAME": "FENGYUN 1C DEB", "OBJECT_ID": "1999-025AEX", "EPOCH": "2025-12-15T05:12:03.616992", "MEAN_MOTION": 14.22312365, "ECCENTRICITY": 0.00975269, "INCLINATION": 98.4265, "RA_OF_ASC_NODE": 243.1081, "ARG_OF_PERICENTER": 126.2293, "MEAN_ANOMALY": 0.3369, "EPHEMERIS_TYPE": 0, "CLASSIFICATION_TYPE": "U", "NORAD_CAT_ID": 30436, "ELEMENT_SET_NO": 999, "REV_AT_EPOCH": 96472, "BSTAR": 0.0014661751, "MEAN_MOTION_DOT": 3.382e-05, "MEAN_MOTION_DDOT": 0}, "tle": {"line1": "1 30436U 99025AEX 25349.21670853  .00003382  00000+0  14662-2 0  9992", "line2": "2 30436  98.4265 243.1081 0097526 126.2293   0.3369 14.22312365964723"}}, "geometry": {"type": "Point", "coordinates": [-118.5781566202363, 20.317992402380398]}}, {"type": "Feature", "properties": {"norad_id": 30437, "name": "FENGYUN 1C DEB", "group": "fengyun-1c-debris", "lat": -25.590177594085446, "lon": 15.321259911039666, "alt_km": 619.8895535747315, "timestamp": "2025-12-16T17:51:11.207720+00:00", "meta": {"OBJECT_NAME": "FENGYUN 1C DEB", "OBJECT_ID": "1999-025AEY", "EPOCH": "2025-12-15T21:31:44.154912", "MEAN_MOTION": 14.88181767, "ECCENTRICITY": 0.00358436, "INCLINATION": 98.9219, "RA_OF_ASC_NODE": 10.0545, "ARG_OF_PERICENTER": 92.4202, "MEAN_ANOMALY": 27.8896, "EPHEMERIS_TYPE": 0, "CLASSIFICATION_TYPE": "U", "NORAD_CAT_ID": 30437, "ELEMENT_SET_NO": 999, "REV_AT_EPOCH": 99234, "BSTAR": 0.0016972169, "MEAN_MOTION_DOT": 0.00015795, "MEAN_MOTION_DDOT": 0}, "tle": {"line1": "1 30437U 99025AEY 25349.89703883  .00015795  00000+0  16972-2 0  9994", "line2": "2 30437  98.9219  10.0545 0035843  92.4202  27.8896 14.88181767992342"}}, "geometry": {"type": "Point", "coordinates": [15.321259911039666, -25.590177594085446]}}, {"type": "Feature", "properties": {"norad_id": 30438, "name": "FENGYUN 1C DEB", "group": "fengyun-1c-debris", "lat": -24.527455612107477, "lon": -176.48069038558955, "alt_km": 840.2759052477622, "timestamp": "2025-12-16T17:51:11.207731+00:00", "meta": {"OBJECT_NAME": "FENGYUN 1C DEB", "OBJECT_ID": "1999-025AEZ", "EPOCH": "2025-12-15T01:12:08.882784", "MEAN_MOTION": 13.92108304, "ECCENTRICITY": 0.01347288, "INCLINATION": 98.7499, "RA_OF_ASC_NODE": 5.9498, "ARG_OF_PERICENTER": 180.4793, "MEAN_ANOMALY": 179.6259, "EPHEMERIS_TYPE": 0, "CLASSIFICATION_TYPE": "U", "NORAD_CAT_ID": 30438, "ELEMENT_SET_NO": 999, "REV_AT_EPOCH": 95338, "BSTAR": 0.0014001312, "MEAN_MOTION_DOT": 1.889e-05, "MEAN_MOTION_DDOT": 0}, "tle": {"line1": "1 30438U 99025AEZ 25349.05010281  .00001889  00000+0  14001-2 0  9996", "line2": "2 30438  98.7499   5.9498 0134728 180.4793 179.6259 13.92108304953386"}}, "geometry": {"type": "Point", "coordinates": [-176.48069038558955, -24.527455612107477]}}, {"type": "Feature", "properties": {"norad_id": 30439, "name": "FENGYUN 1C DEB", "group": "fengyun-1c-debris", "lat": 13.179640887398412, "lon": 0.27461752992628713, "alt_km": 845.619958617689, "timestamp": "2025-12-16T17:51:11.207741+00:00", "meta": {"OBJECT_NAME": "FENGYUN 1C DEB", "OBJECT_ID": "1999-025AFA", "EPOCH": "2025-12-15T23:20:43.590336", "MEAN_MOTION": 14.08845844, "ECCENTRICITY": 0.00385861, "INCLINATION": 98.75, "RA_OF_ASC_NODE": 1.593, "ARG_OF_PERICENTER": 327.5537, "MEAN_ANOMALY": 96.5751, "EPHEMERIS_TYPE": 0, "CLASSIFICATION_TYPE": "U", "NORAD_CAT_ID": 30439, "ELEMENT_SET_NO": 999, "REV_AT_EPOCH": 96837, "BSTAR": 0.00052882889, "MEAN_MOTION_DOT": 8.76e-06, "MEAN_MOTION_DDOT": 0}, "tle": {"line1": "1 30439U 99025AFA 25349.97272674  .00000876  00000+0  52883-3 0  9990", "line2": "2 30439  98.7500   1.5930 0038586 327.5537  96.5751 14.08845844968372"}}, "geometry": {"type": "Point", "coordinates": [0.27461752992628713, 13.179640887398412]}}, {"type": "Feature", "properties": {"norad_id": 30441, "name": "FENGYUN 1C DEB", "group": "fengyun-1c-debris", "lat": -63.58224431075959, "lon": 98.85452770665792, "alt_km": 887.2388232895528, "timestamp": "2025-12-16T17:51:11.207751+00:00", "meta": {"OBJECT_NAME": "FENGYUN 1C DEB", "OBJECT_ID": "1999-025AFC", "EPOCH": "2025-12-15T17:45:52.945632", "MEAN_MOTION": 13.77682485, "ECCENTRICITY": 0.01839448, "INCLINATION": 99.1348, "RA_OF_ASC_NODE": 78.9918, "ARG_OF_PERICENTER": 249.7122, "MEAN_ANOMALY": 108.4176, "EPHEMERIS_TYPE": 0, "CLASSIFICATION_TYPE": "U", "NORAD_CAT_ID": 30441, "ELEMENT_SET_NO": 999, "REV_AT_EPOCH": 94911, "BSTAR": 0.00059652229, "MEAN_MOTION_DOT": 6.31e-06, "MEAN_MOTION_DDOT": 0}, "tle": {"line1": "1 30441U 99025AFC 25349.74019613  .00000631  00000+0  59652-3 0  9990", "line2": "2 30441  99.1348  78.9918 0183944 249.7122 108.4176 13.77682485949118"}}, "geometry": {"type": "Point", "coordinates": [98.85452770665792, -63.58224431075959]}}, {"type": "Feature", "properties": {"norad_id": 30442, "name": "FENGYUN 1C DEB", "group": "fengyun-1c-debris", "lat": -3.8582456386423094, "lon": 85.00682599752118, "alt_km": 792.9026965071753, "timestamp": "2025-12-16T17:51:11.207762+00:00", "meta": {"OBJECT_NAME": "FENGYUN 1C DEB", "OBJECT_ID": "1999-025AFD", "EPOCH": "2025-12-15T04:53:32.447328", "MEAN_MOTION": 14.28639016, "ECCENTRICITY": 0.00549893, "INCLINATION": 98.8663, "RA_OF_ASC_NODE": 82.8391, "ARG_OF_PERICENTER": 280.2311, "MEAN_ANOMALY": 79.2672, "EPHEMERIS_TYPE": 0, "CLASSIFICATION_TYPE": "U", "NORAD_CAT_ID": 30442, "ELEMENT_SET_NO": 999, "REV_AT_EPOCH": 97197, "BSTAR": 0.0015584765, "MEAN_MOTION_DOT": 3.934e-05, "MEAN_MOTION_DDOT": 0}, "tle": {"line1": "1 30442U 99025AFD 25349.20384777  .00003934  00000+0  15585-2 0  9993", "line2": "2 30442  98.8663  82.8391 0054989 280.2311  79.2672 14.28639016971974"}}, "geometry": {"type": "Point", "coordinates": [85.00682599752118, -3.8582456386423094]}}, {"type": "Feature", "properties": {"norad_id": 30443, "name": "FENGYUN 1C DEB", "group": "fengyun-1c-debris", "lat": -77.74079367933274, "lon": -16.235101264656887, "alt_km": 763.2968112148501, "timestamp": "2025-12-16T17:51:11.207775+00:00", "meta": {"OBJECT_NAME": "FENGYUN 1C DEB", "OBJECT_ID": "1999-025AFE", "EPOCH": "2025-12-15T20:30:12.250944", "MEAN_MOTION": 14.36840366, "ECCENTRICITY": 0.00275093, "INCLINATION": 98.8477, "RA_OF_ASC_NODE": 297.0569, "ARG_OF_PERICENTER": 330.1178, "MEAN_ANOMALY": 29.8435, "EPHEMERIS_TYPE": 0, "CLASSIFICATION_TYPE": "U", "NORAD_CAT_ID": 30443, "ELEMENT_SET_NO": 999, "REV_AT_EPOCH": 97478, "BSTAR": 0.001610214, "MEAN_MOTION_DOT": 4.735e-05, "MEAN_MOTION_DDOT": 0}, "tle": {"line1": "1 30443U 99025AFE 25349.85430846  .00004735  00000+0  16102-2 0  9990", "line2": "2 30443  98.8477 297.0569 0027509 330.1178  29.8435 14.36840366974780"}}, "geometry": {"type": "Point", "coordinates": [-16.235101264656887, -77.74079367933274]}}, {"type": "Feature", "properties": {"norad_id": 30445, "name": "FENGYUN 1C DEB", "group": "fengyun-1c-debris", "lat": 71.38268553464363, "lon": -85.21307607260678, "alt_km": 693.0077072148915, "timestamp": "2025-12-16T17:51:11.207785+00:00", "meta": {"OBJECT_NAME": "FENGYUN 1C DEB", "OBJECT_ID": "1999-025AFG", "EPOCH": "2025-12-15T19:58:22.417824", "MEAN_MOTION": 14.4876497, "ECCENTRICITY": 0.01057685, "INCLINATION": 98.8348, "RA_OF_ASC_NODE": 301.3296, "ARG_OF_PERICENTER": 9.0669, "MEAN_ANOMALY": 351.2401, "EPHEMERIS_TYPE": 0, "CLASSIFICATION_TYPE": "U", "NORAD_CAT_ID": 30445, "ELEMENT_SET_NO": 999, "REV_AT_EPOCH": 99229, "BSTAR": 0.00057231935, "MEAN_MOTION_DOT": 2.265e-05, "MEAN_MOTION_DDOT": 0}, "tle": {"line1": "1 30445U 99025AFG 25349.83220391  .00002265  00000+0  57232-3 0  9998", "line2": "2 30445  98.8348 301.3296 0105768   9.0669 351.2401 14.48764970992296"}}, "geometry": {"type": "Point", "coordinates": [-85.21307607260678, 71.38268553464363]}}, {"type": "Feature", "properties": {"norad_id": 30446, "name": "FENGYUN 1C DEB", "group": "fengyun-1c-debris", "lat": 25.028049604044437, "lon": -102.64122971375947, "alt_km": 732.7619954428719, "timestamp": "2025-12-16T17:51:11.207795+00:00", "meta": {"OBJECT_NAME": "FENGYUN 1C DEB", "OBJECT_ID": "1999-025AFH", "EPOCH": "2025-12-15T17:52:25.604256", "MEAN_MOTION": 14.44763221, "ECCENTRICITY": 0.00346706, "INCLINATION": 98.6141, "RA_OF_ASC_NODE": 72.2877, "ARG_OF_PERICENTER": 89.3834, "MEAN_ANOMALY": 271.1329, "EPHEMERIS_TYPE": 0, "CLASSIFICATION_TYPE": "U", "NORAD_CAT_ID": 30446, "ELEMENT_SET_NO": 999, "REV_AT_EPOCH": 98220, "BSTAR": 0.0011240953, "MEAN_MOTION_DOT": 3.888e-05, "MEAN_MOTION_DDOT": 0}, "tle": {"line1": "1 30446U 99025AFH 25349.74474079  .00003888  00000+0  11241-2 0  9994", "line2": "2 30446  98.6141  72.2877 0034670  89.3834 271.1329 14.44763221982206"}}, "geometry": {"type": "Point", "coordinates": [-102.64122971375947, 25.028049604044437]}}]}